{
  "type": "FeatureCollection",
  "features": [
    {
      "type": "Feature",
      "properties": {
        "norad_id": 34540,
        "name": "IRIDIUM 33 DEB",
        "group": "iridium-33-debris",
        "lat": -11.331068564634421,
        "lon": -51.0782285085957,
        "alt_km": 659.9056763747985,
        "timestamp": "2025-12-08T05:48:09.418860+00:00",
        "meta_object_name": "IRIDIUM 33 DEB",
        "meta_object_id": "1997-051JH",
        "meta_epoch": "2025-12-07T22:02:16.035360",
        "meta_mean_motion": 14.75161362,
        "meta_eccentricity": 0.0015532,
        "meta_inclination": 86.3104,
        "meta_ra_of_asc_node": 309.8105,
        "meta_arg_of_pericenter": 176.3599,
        "meta_mean_anomaly": 255.3515,
        "meta_ephemeris_type": 0,
        "meta_classification_type": "U",
        "meta_norad_cat_id": 34540,
        "meta_element_set_no": 999,
        "meta_rev_at_epoch": 88950,
        "meta_bstar": 0.0021313742,
        "meta_mean_motion_dot": 0.00014454,
        "meta_mean_motion_ddot": 0,
        "tle_line1": "1 34540U 97051JH  25341.91824115  .00014454  00000+0  21314-2 0  9994",
        "tle_line2": "2 34540  86.3104 309.8105 0015532 176.3599 255.3515 14.75161362889504"
      },
      "geometry": {
        "type": "Point",
        "coordinates": [
          -51.0782285085957,
          -11.331068564634421
        ]
      }
    },
    {
      "type": "Feature",
      "properties": {
        "norad_id": 34648,
        "name": "IRIDIUM 33 DEB",
        "group": "iridium-33-debris",
        "lat": 86.3599395245595,
        "lon": 6.39418653079922,
        "alt_km": 943.7254820481348,
        "timestamp": "2025-12-08T05:48:09.418870+00:00",
        "meta_object_name": "IRIDIUM 33 DEB",
        "meta_object_id": "1997-051JZ",
        "meta_epoch": "2025-12-06T19:20:47.044320",
        "meta_mean_motion": 14.11197938,
        "meta_eccentricity": 0.01849632,
        "meta_inclination": 86.3922,
        "meta_ra_of_asc_node": 284.3423,
        "meta_arg_of_pericenter": 317.3129,
        "meta_mean_anomaly": 41.3805,
        "meta_ephemeris_type": 0,
        "meta_classification_type": "U",
        "meta_norad_cat_id": 34648,
        "meta_element_set_no": 999,
        "meta_rev_at_epoch": 84877,
        "meta_bstar": 0.013223828,
        "meta_mean_motion_dot": 0.00028092,
        "meta_mean_motion_ddot": 0,
        "tle_line1": "1 34648U 97051JZ  25340.80610005  .00028092  00000+0  13224-1 0  9994",
        "tle_line2": "2 34648  86.3922 284.3423 0184963 317.3129  41.3805 14.11197938848779"
      },
      "geometry": {
        "type": "Point",
        "coordinates": [
          6.39418653079922,
          86.3599395245595
        ]
      }
    },
    {
      "type": "Feature",
      "properties": {
        "norad_id": 34651,
        "name": "IRIDIUM 33 DEB",
        "group": "iridium-33-debris",
        "lat": -83.99781084872227,
        "lon": 104.30982301172212,
        "alt_km": 756.3998194747301,
        "timestamp": "2025-12-08T05:48:09.418880+00:00",
        "meta_object_name": "IRIDIUM 33 DEB",
        "meta_object_id": "1997-051KC",
        "meta_epoch": "2025-12-06T22:11:54.879936",
        "meta_mean_motion": 14.25664536,
        "meta_eccentricity": 0.01419317,
        "meta_inclination": 86.2838,
        "meta_ra_of_asc_node": 143.05,
        "meta_arg_of_pericenter": 222.4049,
        "meta_mean_anomaly": 136.6106,
        "meta_ephemeris_type": 0,
        "meta_classification_type": "U",
        "meta_norad_cat_id": 34651,
        "meta_element_set_no": 999,
        "meta_rev_at_epoch": 85813,
        "meta_bstar": 0.004978077,
        "meta_mean_motion_dot": 0.00013145,
        "meta_mean_motion_ddot": 0,
        "tle_line1": "1 34651U 97051KC  25340.92494074  .00013145  00000+0  49781-2 0  9998",
        "tle_line2": "2 34651  86.2838 143.0500 0141931 222.4049 136.6106 14.25664536858131"
      },
      "geometry": {
        "type": "Point",
        "coordinates": [
          104.30982301172212,
          -83.99781084872227
        ]
      }
    },
    {
      "type": "Feature",
      "properties": {
        "norad_id": 34652,
        "name": "IRIDIUM 33 DEB",
        "group": "iridium-33-debris",
        "lat": 80.94209798385597,
        "lon": 138.271984854917,
        "alt_km": 694.4427709399761,
        "timestamp": "2025-12-08T05:48:09.418890+00:00",
        "meta_object_name": "IRIDIUM 33 DEB",
        "meta_object_id": "1997-051KD",
        "meta_epoch": "2025-12-07T18:40:52.005216",
        "meta_mean_motion": 14.61987873,
        "meta_eccentricity": 0.00264464,
        "meta_inclination": 86.3313,
        "meta_ra_of_asc_node": 342.2105,
        "meta_arg_of_pericenter": 316.1638,
        "meta_mean_anomaly": 224.5751,
        "meta_ephemeris_type": 0,
        "meta_classification_type": "U",
        "meta_norad_cat_id": 34652,
        "meta_element_set_no": 999,
        "meta_rev_at_epoch": 88411,
        "meta_bstar": 0.0017107824,
        "meta_mean_motion_dot": 8.64e-05,
        "meta_mean_motion_ddot": 0,
        "tle_line1": "1 34652U 97051KD  25341.77837969  .00008640  00000+0  17108-2 0  9999",
        "tle_line2": "2 34652  86.3313 342.2105 0026446 316.1638 224.5751 14.61987873884115"
      },
      "geometry": {
        "type": "Point",
        "coordinates": [
          138.271984854917,
          80.94209798385597
        ]
      }
    },
    {
      "type": "Feature",
      "properties": {
        "norad_id": 34690,
        "name": "IRIDIUM 33 DEB",
        "group": "iridium-33-debris",
        "lat": 72.84369894123365,
        "lon": 50.784963169605795,
        "alt_km": 695.2965661928665,
        "timestamp": "2025-12-08T05:48:09.418900+00:00",
        "meta_object_name": "IRIDIUM 33 DEB",
        "meta_object_id": "1997-051KM",
        "meta_epoch": "2025-12-07T22:01:41.008800",
        "meta_mean_motion": 14.5506789,
        "meta_eccentricity": 0.00113723,
        "meta_inclination": 86.3784,
        "meta_ra_of_asc_node": 39.0871,
        "meta_arg_of_pericenter": 43.7388,
        "meta_mean_anomaly": 133.6613,
        "meta_ephemeris_type": 0,
        "meta_classification_type": "U",
        "meta_norad_cat_id": 34690,
        "meta_element_set_no": 999,
        "meta_rev_at_epoch": 88024,
        "meta_bstar": 0.00065617723,
        "meta_mean_motion_dot": 2.851e-05,
        "meta_mean_motion_ddot": 0,
        "tle_line1": "1 34690U 97051KM  25341.91783575  .00002851  00000+0  65618-3 0  9998",
        "tle_line2": "2 34690  86.3784  39.0871 0011372  43.7388 133.6613 14.55067890880245"
      },
      "geometry": {
        "type": "Point",
        "coordinates": [
          50.784963169605795,
          72.84369894123365
        ]
      }
    },
    {
      "type": "Feature",
      "properties": {
        "norad_id": 34693,
        "name": "IRIDIUM 33 DEB",
        "group": "iridium-33-debris",
        "lat": 36.8100580529556,
        "lon": -51.17249961153211,
        "alt_km": 474.7476857754991,
        "timestamp": "2025-12-08T05:48:09.418910+00:00",
        "meta_object_name": "IRIDIUM 33 DEB",
        "meta_object_id": "1997-051KQ",
        "meta_epoch": "2025-12-07T22:02:58.454304",
        "meta_mean_motion": 15.26250885,
        "meta_eccentricity": 0.00150657,
        "meta_inclination": 86.3063,
        "meta_ra_of_asc_node": 306.2164,
        "meta_arg_of_pericenter": 60.7141,
        "meta_mean_anomaly": 2.5462,
        "meta_ephemeris_type": 0,
        "meta_classification_type": "U",
        "meta_norad_cat_id": 34693,
        "meta_element_set_no": 999,
        "meta_rev_at_epoch": 88841,
        "meta_bstar": 0.005329848,
        "meta_mean_motion_dot": 0.00140844,
        "meta_mean_motion_ddot": 0,
        "tle_line1": "1 34693U 97051KQ  25341.91873211  .00140844  00000+0  53298-2 0  9993",
        "tle_line2": "2 34693  86.3063 306.2164 0015065  60.7141   2.5462 15.26250885888411"
      },
      "geometry": {
        "type": "Point",
        "coordinates": [
          -51.17249961153211,
          36.8100580529556
        ]
      }
    },
    {
      "type": "Feature",
      "properties": {
        "norad_id": 34696,
        "name": "IRIDIUM 33 DEB",
        "group": "iridium-33-debris",
        "lat": 51.8636412509645,
        "lon": 34.49224742313466,
        "alt_km": 707.1439432784327,
        "timestamp": "2025-12-08T05:48:09.418921+00:00",
        "meta_object_name": "IRIDIUM 33 DEB",
        "meta_object_id": "1997-051KT",
        "meta_epoch": "2025-12-07T15:23:57.385824",
        "meta_mean_motion": 14.64684407,
        "meta_eccentricity": 0.00743957,
        "meta_inclination": 86.1851,
        "meta_ra_of_asc_node": 29.8959,
        "meta_arg_of_pericenter": 184.7864,
        "meta_mean_anomaly": 305.4962,
        "meta_ephemeris_type": 0,
        "meta_classification_type": "U",
        "meta_norad_cat_id": 34696,
        "meta_element_set_no": 999,
        "meta_rev_at_epoch": 86598,
        "meta_bstar": 0.0083761654,
        "meta_mean_motion_dot": 0.00046678,
        "meta_mean_motion_ddot": 0,
        "tle_line1": "1 34696U 97051KT  25341.64163641  .00046678  00000+0  83762-2 0  9994",
        "tle_line2": "2 34696  86.1851  29.8959 0074395 184.7864 305.4962 14.64684407865986"
      },
      "geometry": {
        "type": "Point",
        "coordinates": [
          34.49224742313466,
          51.8636412509645
        ]
      }
    }
  ]
}